{"type":"FeatureCollection","features":[{"type":"Feature","properties":{"tipo":"ducha","nombre":"DUCHA N\u00ba36 - SIDI SALER IZQDA"},"geometry":{"type":"Point","coordinates":[-0.3197599689281006,39.367477495957495]}},{"type":"Feature","properties":{"tipo":"ducha","nombre":"DUCHA N\u00ba38-SIDI SALER-IZQUIERDA(TRANSFORMADOR)"},"geometry":{"type":"Point","coordinates":[-0.3203800054824343,39.37100219710781]}},{"type":"Feature","properties":{"tipo":"ducha","nombre":"DUCHA N\u00ba35-SIDI SALER-IZQUIERDA"},"geometry":{"type":"Point","coordinates":[-0.31836699996986706,39.365940094854174]}},{"type":"Feature","properties":{"tipo":"ducha","nombre":"DUCHA N\u00ba 84-POSTA SANITARIA ARBRE DEL GOS"},"geometry":{"type":"Point","coordinates":[-0.3318830118442277,39.40666198978666]}},{"type":"Feature","properties":{"tipo":"ducha","nombre":"DUCHA N\u00ba 50 -CABA\u00d1AL"},"geometry":{"type":"Point","coordinates":[-0.3222829958835772,39.465671536983784]}},{"type":"Feature","properties":{"tipo":"ducha","nombre":"DUCHA N\u00ba79-ESTIVADORES"},"geometry":{"type":"Point","coordinates":[-0.3291681789458567,39.39826264455287]}},{"type":"Feature","properties":{"tipo":"ducha","nombre":"DUCHA N\u00ba40-SALER"},"geometry":{"type":"Point","coordinates":[-0.32236400595352843,39.37532043044485]}},{"type":"Feature","properties":{"tipo":"ducha","nombre":"DUCHA N\u00ba17-PERELLONET"},"geometry":{"type":"Point","coordinates":[-0.29147401177973814,39.306083674202384]}},{"type":"Feature","properties":{"tipo":"ducha","nombre":"DUCHA N\u00ba 62 -ARENAS MALVARROSA"},"geometry":{"type":"Point","coordinates":[-0.32345399517500095,39.47707748318837]}},{"type":"Feature","properties":{"tipo":"ducha","nombre":"DUCHA 65 ARENAS - MALVARROSA ( POSTA N\u00ba 1 )"},"geometry":{"type":"Point","coordinates":[-0.3238370088582541,39.47933196983126]}},{"type":"Feature","properties":{"tipo":"ducha","nombre":"DUCHA N\u00ba 61-JUNTO DELFINES -ARENAS MALVARROSA"},"geometry":{"type":"Point","coordinates":[-0.3233709926142479,39.474681856407365]}},{"type":"Feature","properties":{"tipo":"ducha","nombre":"DUCHA N\u00ba10-PERELLONET-POSTA SANITARIA"},"geometry":{"type":"Point","coordinates":[-0.28516998973764063,39.29485702667918]}},{"type":"Feature","properties":{"tipo":"ducha","nombre":"DUCHA N\u00ba13-PERELLONET"},"geometry":{"type":"Point","coordinates":[-0.28806100329274453,39.30019999729362]}},{"type":"Feature","properties":{"tipo":"ducha","nombre":"DUCHA N\u00ba 67 -ARENAS MALVARROSA"},"geometry":{"type":"Point","coordinates":[-0.32359001505011925,39.48133850284989]}},{"type":"Feature","properties":{"tipo":"ducha","nombre":"DUCHA N\u00ba 56 -CABA\u00d1AL"},"geometry":{"type":"Point","coordinates":[-0.32301300870530436,39.4694023107138]}},{"type":"Feature","properties":{"tipo":"ducha","nombre":"DUCHA N\u00ba 55-POSTA N\u00ba3 BIBLIOMAR -CABA\u00d1AL"},"geometry":{"type":"Point","coordinates":[-0.3225109939275383,39.467868802408276]}},{"type":"Feature","properties":{"tipo":"ducha","nombre":"DUCHA N\u00ba3-PERELLONET"},"geometry":{"type":"Point","coordinates":[-0.2767393730918329,39.28113263933196]}},{"type":"Feature","properties":{"tipo":"ducha","nombre":"DUCHA N\u00ba29-SIDI SALER-DERECHA"},"geometry":{"type":"Point","coordinates":[-0.3159900035291851,39.35912322854221]}},{"type":"Feature","properties":{"tipo":"ducha","nombre":"DUCHA N\u00ba 85-ARBRE DEL GOS"},"geometry":{"type":"Point","coordinates":[-0.33221301743438925,39.406890864407636]}},{"type":"Feature","properties":{"tipo":"ducha","nombre":"DUCHA N\u00ba41-SALER"},"geometry":{"type":"Point","coordinates":[-0.32273399392102164,39.37681579494142]}},{"type":"Feature","properties":{"tipo":"ducha","nombre":"DUCHA N\u00ba 19-CASAL DE ESPLAY"},"geometry":{"type":"Point","coordinates":[-0.3055489900917823,39.33504485676874]}},{"type":"Feature","properties":{"tipo":"ducha","nombre":"DUCHA N\u00ba43-SALER-POSTA SANITARIA-JUNTO RTES"},"geometry":{"type":"Point","coordinates":[-0.3236890128353481,39.38031005456321]}},{"type":"Feature","properties":{"tipo":"ducha","nombre":"DUCHA N\u00ba 48-POSTA N\u00ba 4-JUNTO PUERTO -CABA\u00d1AL"},"geometry":{"type":"Point","coordinates":[-0.3220140068938312,39.46426391404086]}},{"type":"Feature","properties":{"tipo":"ducha","nombre":"DUCHA N\u00ba 88-ARBRE DEL GOS"},"geometry":{"type":"Point","coordinates":[-0.3327249866130198,39.40916061612052]}},{"type":"Feature","properties":{"tipo":"ducha","nombre":"DUCHA N\u00ba14-PERELLONET"},"geometry":{"type":"Point","coordinates":[-0.2889559912556746,39.30172729390119]}},{"type":"Feature","properties":{"tipo":"ducha","nombre":"DUCHA N 47-1-Paseo de pinedo"},"geometry":{"type":"Point","coordinates":[-0.33398800614212326,39.41703414997806]}},{"type":"Feature","properties":{"tipo":"ducha","nombre":"DUCHA N\u00ba 66 -ARENAS MALVARROSA"},"geometry":{"type":"Point","coordinates":[-0.323592987985108,39.481262204493795]}},{"type":"Feature","properties":{"tipo":"ducha","nombre":"DUCHA N\u00ba46-SALER"},"geometry":{"type":"Point","coordinates":[-0.3253161680518443,39.38425722859257]}},{"type":"Feature","properties":{"tipo":"ducha","nombre":"DUCHA N\u00ba 52 -CABA\u00d1AL"},"geometry":{"type":"Point","coordinates":[-0.32237199154057955,39.46644973439607]}},{"type":"Feature","properties":{"tipo":"ducha","nombre":"DUCHA N\u00ba 82-ARBRE DEL GOS"},"geometry":{"type":"Point","coordinates":[-0.32960991667356454,39.40420051989281]}},{"type":"Feature","properties":{"tipo":"ducha","nombre":"DUCHA N\u00ba 63 -ARENAS MALVARROSA"},"geometry":{"type":"Point","coordinates":[-0.32344600786230016,39.47710419022533]}},{"type":"Feature","properties":{"tipo":"ducha","nombre":"DUCHA 59  CABA\u00d1AL-junto posta de policia"},"geometry":{"type":"Point","coordinates":[-0.3230989816676314,39.47187423947098]}},{"type":"Feature","properties":{"tipo":"ducha","nombre":"DUCHA N\u00ba 47-4-Paseo de pinedo"},"geometry":{"type":"Point","coordinates":[-0.3340539902323763,39.42175674276554]}},{"type":"Feature","properties":{"tipo":"ducha","nombre":"DUCHA N\u00ba 86-ARBRE DEL GOS"},"geometry":{"type":"Point","coordinates":[-0.3324629970904779,39.40803145853071]}},{"type":"Feature","properties":{"tipo":"ducha","nombre":"DUCHA N\u00ba 83-ARBRE DEL GOS"},"geometry":{"type":"Point","coordinates":[-0.33201300939939327,39.40653610208782]}},{"type":"Feature","properties":{"tipo":"ducha","nombre":"DUCHA N\u00ba 47-3-Paseo de pinedo"},"geometry":{"type":"Point","coordinates":[-0.3339999856081635,39.41999435630512]}},{"type":"Feature","properties":{"tipo":"ducha","nombre":"DUCHA N\u00ba 89-ARBRE DEL GOS"},"geometry":{"type":"Point","coordinates":[-0.3329369995556463,39.410297392088545]}},{"type":"Feature","properties":{"tipo":"ducha","nombre":"DUCHA N\u00ba 68 -ARENAS MALVARROSA"},"geometry":{"type":"Point","coordinates":[-0.32378300964115514,39.48304366603115]}},{"type":"Feature","properties":{"tipo":"ducha","nombre":"DUCHA N\u00ba44-SALER"},"geometry":{"type":"Point","coordinates":[-0.3237990186106176,39.3803138747111]}},{"type":"Feature","properties":{"tipo":"ducha","nombre":"DUCHA N\u00ba 47-3 B-MINUSVALIDO POSTA"},"geometry":{"type":"Point","coordinates":[-0.33378198729767206,39.419948573743284]}},{"type":"Feature","properties":{"tipo":"ducha","nombre":"DUCHA N\u00ba 87-ARBRE DEL GOS"},"geometry":{"type":"Point","coordinates":[-0.33270099247278234,39.40885544169904]}},{"type":"Feature","properties":{"tipo":"ducha","nombre":"DUCHA N\u00ba16-PERELLONET"},"geometry":{"type":"Point","coordinates":[-0.29093599922877333,39.3052864108811]}},{"type":"Feature","properties":{"tipo":"ducha","nombre":"DUCHA N\u00ba 47-2-Paseo de pinedo"},"geometry":{"type":"Point","coordinates":[-0.3341760060284116,39.41850661675593]}},{"type":"Feature","properties":{"tipo":"ducha","nombre":"DUCHA N\u00ba42-SALER"},"geometry":{"type":"Point","coordinates":[-0.32330999249939546,39.37850188793081]}},{"type":"Feature","properties":{"tipo":"ducha","nombre":"DUCHA 58 ( POSTA N\u00ba 2 CABA\u00d1AL )POLICIA"},"geometry":{"type":"Point","coordinates":[-0.32310599387077876,39.471839906611585]}},{"type":"Feature","properties":{"tipo":"ducha","nombre":"DUCHA N\u00ba 69 ARENAS - MALVARROSA"},"geometry":{"type":"Point","coordinates":[-0.3237769885691918,39.48317336986029]}},{"type":"Feature","properties":{"tipo":"ducha","nombre":"DUCHA N\u00ba 80-ARBRE DEL GOS"},"geometry":{"type":"Point","coordinates":[-0.32895716996350455,39.40162763484874]}},{"type":"Feature","properties":{"tipo":"ducha","nombre":"DUCHA N\u00ba28 - SIDI SALER DCHA URB CASBAN"},"geometry":{"type":"Point","coordinates":[-0.3153569992730183,39.35687636920764]}},{"type":"Feature","properties":{"tipo":"ducha","nombre":"DUCHA N\u00ba 54 -POSTA N\u00ba3 BIBLIOMAR -CABA\u00d1AL"},"geometry":{"type":"Point","coordinates":[-0.32249501568207306,39.46783447137429]}},{"type":"Feature","properties":{"tipo":"ducha","nombre":"DUCHA N\u00ba 47-5-Paseo de pinedo ( playa can )"},"geometry":{"type":"Point","coordinates":[-0.3343180096519469,39.42246627630966]}},{"type":"Feature","properties":{"tipo":"ducha","nombre":"DUCHA N\u00ba7-PERELLONET"},"geometry":{"type":"Point","coordinates":[-0.28185200950634764,39.289318086001984]}},{"type":"Feature","properties":{"tipo":"ducha","nombre":"DUCHA N\u00ba18-PERELLONET"},"geometry":{"type":"Point","coordinates":[-0.29269200578634047,39.307819369310586]}},{"type":"Feature","properties":{"tipo":"ducha","nombre":"DUCHA N\u00ba 57 -CABA\u00d1AL"},"geometry":{"type":"Point","coordinates":[-0.32301500271290073,39.469444274237205]}},{"type":"Feature","properties":{"tipo":"ducha","nombre":"DUCHA N\u00ba 51 -CABA\u00d1AL"},"geometry":{"type":"Point","coordinates":[-0.32228300411959093,39.46570586943122]}},{"type":"Feature","properties":{"tipo":"ducha","nombre":"DUCHA N\u00ba5-PERELLONET"},"geometry":{"type":"Point","coordinates":[-0.2800268056393507,39.28648884926913]}},{"type":"Feature","properties":{"tipo":"ducha","nombre":"DUCHA N\u00ba 60-JUNTO DELFINES -ARENAS MALVARROSA"},"geometry":{"type":"Point","coordinates":[-0.3233810091409052,39.47465133136473]}},{"type":"Feature","properties":{"tipo":"ducha","nombre":"DUCHA N\u00ba2-PERELLONET"},"geometry":{"type":"Point","coordinates":[-0.27625000392453253,39.28012847784907]}},{"type":"Feature","properties":{"tipo":"ducha","nombre":"DUCHA N\u00ba 53 -CABA\u00d1AL"},"geometry":{"type":"Point","coordinates":[-0.3223839962667718,39.46647644260032]}},{"type":"Feature","properties":{"tipo":"ducha","nombre":"DUCHA N\u00ba 90 ARBRE DEL GOS"},"geometry":{"type":"Point","coordinates":[-0.3329379896891777,39.41033935081082]}},{"type":"Feature","properties":{"tipo":"ducha","nombre":"DUCHA N\u00ba45-SALER"},"geometry":{"type":"Point","coordinates":[-0.3242399974753825,39.38140487591255]}},{"type":"Feature","properties":{"tipo":"ducha","nombre":"DUCHA N\u00ba11-PERELLONET"},"geometry":{"type":"Point","coordinates":[-0.28588199546777526,39.296131134229455]}},{"type":"Feature","properties":{"tipo":"ducha","nombre":"DUCHA N\u00ba33-SIDI SALER-IZQUIERDA"},"geometry":{"type":"Point","coordinates":[-0.3177289987422726,39.36375045700854]}},{"type":"Feature","properties":{"tipo":"ducha","nombre":"DUCHA N\u00ba15-PERELLONET"},"geometry":{"type":"Point","coordinates":[-0.2900399830954638,39.303676602005595]}},{"type":"Feature","properties":{"tipo":"ducha","nombre":"DUCHA N\u00ba 64 -ARENAS MALVARROSA ( POSTA N\u00ba 1 )"},"geometry":{"type":"Point","coordinates":[-0.3238529834504849,39.479324337996914]}},{"type":"Feature","properties":{"tipo":"ducha","nombre":"DUCHA N\u00ba9-PERELLONET"},"geometry":{"type":"Point","coordinates":[-0.2837490144621458,39.29248047076332]}},{"type":"Feature","properties":{"tipo":"ducha","nombre":"DUCHA N\u00ba 47"},"geometry":{"type":"Point","coordinates":[-0.32616001859012067,39.38568114931657]}},{"type":"Feature","properties":{"tipo":"ducha","nombre":"DUCHA 59-1  CABA\u00d1AL-Junto voley"},"geometry":{"type":"Point","coordinates":[-0.3232960158017248,39.473548886649795]}},{"type":"Feature","properties":{"tipo":"ducha","nombre":"DUCHA N\u00ba1-PERELLONET"},"geometry":{"type":"Point","coordinates":[-0.27561798986175423,39.27918625289015]}},{"type":"Feature","properties":{"tipo":"ducha","nombre":"DUCHA N\u00ba 81-ARBRE DEL GOS"},"geometry":{"type":"Point","coordinates":[-0.32954113724161577,39.403803128899376]}},{"type":"Feature","properties":{"tipo":"ducha","nombre":"DUCHA N\u00ba 49 -CABA\u00d1AL"},"geometry":{"type":"Point","coordinates":[-0.321998006128276,39.464294436247954]}},{"type":"Feature","properties":{"tipo":"ducha","nombre":"DUCHA 58 B MINUSVALIDO ( POSTA N\u00ba 2 CABA\u00d1AL )POLICIA"},"geometry":{"type":"Point","coordinates":[-0.3233850007156893,39.47161483628506]}},{"type":"Feature","properties":{"tipo":"lavapies","nombre":"LAVAPIES N\u00ba43-SALER-POSTA SANITARIA-JUNTO RTES"},"geometry":{"type":"Point","coordinates":[-0.3236890138919686,39.38031005729021]}},{"type":"Feature","properties":{"tipo":"lavapies","nombre":"LAVAPIES N\u00ba 57 ARENAS - MALVARROSA"},"geometry":{"type":"Point","coordinates":[-0.3239279987084518,39.4694366448523]}},{"type":"Feature","properties":{"tipo":"lavapies","nombre":"LAVAPIES N\u00ba1-PERELLONET"},"geometry":{"type":"Point","coordinates":[-0.2757079893736115,39.27916335956064]}},{"type":"Feature","properties":{"tipo":"lavapies","nombre":"LAVAPIES N\u00ba 48-POSTA N\u00ba 4-JUNTO PUERTO"},"geometry":{"type":"Point","coordinates":[-0.32257419822050576,39.46430969184026]}},{"type":"Feature","properties":{"tipo":"lavapies","nombre":"LAVAPIES N\u00ba 53 ARENAS - MALVARROSA"},"geometry":{"type":"Point","coordinates":[-0.3230090144384571,39.466358183997535]}},{"type":"Feature","properties":{"tipo":"lavapies","nombre":"LAVAPIES N\u00ba 47-2 PINEDO"},"geometry":{"type":"Point","coordinates":[-0.3342011573431223,39.4185104357915]}},{"type":"Feature","properties":{"tipo":"lavapies","nombre":"LAVAPIES N\u00ba7-PERELLONET"},"geometry":{"type":"Point","coordinates":[-0.2820000047379543,39.2892303455809]}},{"type":"Feature","properties":{"tipo":"lavapies","nombre":"LAVAPIES N\u00ba2-PERELLONET"},"geometry":{"type":"Point","coordinates":[-0.27626699251591225,39.28009414538255]}},{"type":"Feature","properties":{"tipo":"lavapies","nombre":"LAVAPIES N\u00ba10-PERELLONET-POSTA SANITARIA"},"geometry":{"type":"Point","coordinates":[-0.2854120136381258,39.294681548588386]}},{"type":"Feature","properties":{"tipo":"lavapies","nombre":"LAVAPIES N\u00ba18-PERELLONET"},"geometry":{"type":"Point","coordinates":[-0.2926850023130218,39.30783080975801]}},{"type":"Feature","properties":{"tipo":"lavapies","nombre":"LAVAPIES N\u00ba29-SIDI SALER-DERECHA"},"geometry":{"type":"Point","coordinates":[-0.3167539534758135,39.35882186770475]}},{"type":"Feature","properties":{"tipo":"lavapies","nombre":"LAVAPIES N\u00ba40-SALER"},"geometry":{"type":"Point","coordinates":[-0.32236400233669266,39.37532043396508]}},{"type":"Feature","properties":{"tipo":"lavapies","nombre":"LAVAPIES N\u00ba3-PERELLONET"},"geometry":{"type":"Point","coordinates":[-0.27689999366877843,39.28113555798321]}},{"type":"Feature","properties":{"tipo":"lavapies","nombre":"LAVAPIES N\u00ba41-SALER"},"geometry":{"type":"Point","coordinates":[-0.32273399856005425,39.37681579504824]}},{"type":"Feature","properties":{"tipo":"lavapies","nombre":"LAVAPIES N\u00ba42-SALER"},"geometry":{"type":"Point","coordinates":[-0.323309987722648,39.378501891424385]}},{"type":"Feature","properties":{"tipo":"lavapies","nombre":"LAVAPIES N\u00ba44-SALER"},"geometry":{"type":"Point","coordinates":[-0.3237990140401415,39.380313872804145]}},{"type":"Feature","properties":{"tipo":"lavapies","nombre":"LAVAPIES N\u00ba45-SALER"},"geometry":{"type":"Point","coordinates":[-0.32423999863521585,39.381404875939225]}},{"type":"Feature","properties":{"tipo":"lavapies","nombre":"LAVAPIES N\u00ba46-SALER"},"geometry":{"type":"Point","coordinates":[-0.3258540030355339,39.38414382868195]}},{"type":"Feature","properties":{"tipo":"lavapies","nombre":"LAVAPIES N\u00ba47-SALER"},"geometry":{"type":"Point","coordinates":[-0.3261600138817439,39.38568115101006]}},{"type":"Feature","properties":{"tipo":"lavapies","nombre":"LAVAPIES N\u00ba 47-3 PINEDO"},"geometry":{"type":"Point","coordinates":[-0.33403700610916737,39.42005157337481]}},{"type":"Feature","properties":{"tipo":"lavapies","nombre":"LAVAPIES N\u00ba 47-4 PINEDO"},"geometry":{"type":"Point","coordinates":[-0.33418855010477866,39.42178726131642]}},{"type":"Feature","properties":{"tipo":"lavapies","nombre":"LAVAPIES N\u00ba 47-5 PINEDO"},"geometry":{"type":"Point","coordinates":[-0.3341900113346381,39.421768187167274]}},{"type":"Feature","properties":{"tipo":"lavapies","nombre":"LAVAPIES N\u00ba 80 PINEDO"},"geometry":{"type":"Point","coordinates":[-0.33064299823822685,39.40137863075408]}},{"type":"Feature","properties":{"tipo":"lavapies","nombre":"LAVAPIES N\u00ba 81 PINEDO"},"geometry":{"type":"Point","coordinates":[-0.331393003887579,39.403606413708694]}},{"type":"Feature","properties":{"tipo":"lavapies","nombre":"LAVAPIES N\u00ba 82 PINEDO"},"geometry":{"type":"Point","coordinates":[-0.3314349951490975,39.40411758368434]}},{"type":"Feature","properties":{"tipo":"lavapies","nombre":"LAVAPIES N\u00ba 83 PINEDO"},"geometry":{"type":"Point","coordinates":[-0.33212500842108406,39.40656661851527]}},{"type":"Feature","properties":{"tipo":"lavapies","nombre":"LAVAPIES N\u00ba 84-POSTA SANITARIA ARBRE DEL GOS"},"geometry":{"type":"Point","coordinates":[-0.33193799869140156,39.40665817164942]}},{"type":"Feature","properties":{"tipo":"lavapies","nombre":"LAVAPIES N\u00ba 85 PINEDO"},"geometry":{"type":"Point","coordinates":[-0.3321889932261508,39.406734466067796]}},{"type":"Feature","properties":{"tipo":"lavapies","nombre":"LAVAPIES N\u00ba 86 PINEDO"},"geometry":{"type":"Point","coordinates":[-0.33225399272495953,39.406909942108086]}},{"type":"Feature","properties":{"tipo":"lavapies","nombre":"LAVAPIES N\u00ba 87 PINEDO"},"geometry":{"type":"Point","coordinates":[-0.3324640089357867,39.40799331591812]}},{"type":"Feature","properties":{"tipo":"lavapies","nombre":"LAVAPIES N\u00ba 88 PINEDO"},"geometry":{"type":"Point","coordinates":[-0.33270299419363775,39.408863066737446]}},{"type":"Feature","properties":{"tipo":"lavapies","nombre":"LAVAPIES N\u00ba 89 PINEDO"},"geometry":{"type":"Point","coordinates":[-0.33272498787627014,39.40916061344685]}},{"type":"Feature","properties":{"tipo":"lavapies","nombre":"LAVAPIES N\u00ba 49 ARENAS - MALVARROSA"},"geometry":{"type":"Point","coordinates":[-0.3225789962155658,39.46420669477668]}},{"type":"Feature","properties":{"tipo":"lavapies","nombre":"LAVAPIES N\u00ba 50 ARENAS - MALVARROSA"},"geometry":{"type":"Point","coordinates":[-0.32291150074878844,39.46566009456207]}},{"type":"Feature","properties":{"tipo":"lavapies","nombre":"LAVAPIES N\u00ba 51 ARENAS - MALVARROSA"},"geometry":{"type":"Point","coordinates":[-0.3229010100273453,39.46557998601763]}},{"type":"Feature","properties":{"tipo":"lavapies","nombre":"LAVAPIES N\u00ba 54 ARENAS - MALVARROSA"},"geometry":{"type":"Point","coordinates":[-0.3231871132959028,39.4678077690587]}},{"type":"Feature","properties":{"tipo":"lavapies","nombre":"LAVAPIES N\u00ba 55-POSTA N\u00ba3 BIBLIOMAR"},"geometry":{"type":"Point","coordinates":[-0.32317200349447534,39.46773528995001]}},{"type":"Feature","properties":{"tipo":"lavapies","nombre":"LAVAPIES N\u00ba 56 ARENAS - MALVARROSA"},"geometry":{"type":"Point","coordinates":[-0.3239406050033765,39.46951293815731]}},{"type":"Feature","properties":{"tipo":"lavapies","nombre":"LAVAPIES N\u00ba 58 ARENAS - MALVARROSA"},"geometry":{"type":"Point","coordinates":[-0.32391622661768815,39.47180557153644]}},{"type":"Feature","properties":{"tipo":"lavapies","nombre":"LAVAPIES N\u00ba 59 ARENAS - MALVARROSA"},"geometry":{"type":"Point","coordinates":[-0.32384380643849225,39.471923826971256]}},{"type":"Feature","properties":{"tipo":"lavapies","nombre":"LAVAPIES N\u00ba 52 ARENAS - MALVARROSA"},"geometry":{"type":"Point","coordinates":[-0.3230227832157946,39.46641921908844]}},{"type":"Feature","properties":{"tipo":"lavapies","nombre":"LAVAPIES N\u00ba59-B ARENAS - MALVARROSA"},"geometry":{"type":"Point","coordinates":[-0.3242155317182803,39.473617552883375]}},{"type":"Feature","properties":{"tipo":"lavapies","nombre":"LAVAPIES N\u00ba 60-JUNTO DELFINES"},"geometry":{"type":"Point","coordinates":[-0.32407513257108217,39.47472381482504]}},{"type":"Feature","properties":{"tipo":"lavapies","nombre":"LAVAPIES N\u00ba 67 ARENAS - MALVARROSA"},"geometry":{"type":"Point","coordinates":[-0.3242030139517018,39.481258391107446]}},{"type":"Feature","properties":{"tipo":"lavapies","nombre":"LAVAPIES N\u00ba 61-JUNTO DELFINES"},"geometry":{"type":"Point","coordinates":[-0.323918998528208,39.47464752074756]}},{"type":"Feature","properties":{"tipo":"lavapies","nombre":"LAVAPIES N\u00ba 62 ARENAS - MALVARROSA"},"geometry":{"type":"Point","coordinates":[-0.32410529202679017,39.47711562999198]}},{"type":"Feature","properties":{"tipo":"lavapies","nombre":"LAVAPIES N\u00ba 63 ARENAS - MALVARROSA"},"geometry":{"type":"Point","coordinates":[-0.323947012066426,39.47702789227861]}},{"type":"Feature","properties":{"tipo":"lavapies","nombre":"LAVAPIES N\u00ba 64 ARENAS - MALVARROSA"},"geometry":{"type":"Point","coordinates":[-0.3239830133102375,39.479305266622426]}},{"type":"Feature","properties":{"tipo":"lavapies","nombre":"LAVAPIES N\u00ba 65 ARENAS - MALVARROSA"},"geometry":{"type":"Point","coordinates":[-0.3239830136311746,39.47940444895151]}},{"type":"Feature","properties":{"tipo":"lavapies","nombre":"LAVAPIES N\u00ba 66 ARENAS - MALVARROSA"},"geometry":{"type":"Point","coordinates":[-0.3242065015747902,39.48132705563322]}},{"type":"Feature","properties":{"tipo":"lavapies","nombre":"LAVAPIES N\u00ba 69 ARENAS - MALVARROSA"},"geometry":{"type":"Point","coordinates":[-0.32439801151590747,39.48303604039847]}},{"type":"Feature","properties":{"tipo":"lavapies","nombre":"LAVAPIES N\u00ba 68 ARENAS - MALVARROSA"},"geometry":{"type":"Point","coordinates":[-0.3243937199041181,39.48308944610086]}},{"type":"Feature","properties":{"tipo":"lavapies","nombre":"LAVAPIES N\u00ba 47-3B PINEDO - JUNTO POSTA SANITARIA"},"geometry":{"type":"Point","coordinates":[-0.3338359895807196,39.419952391527346]}},{"type":"Feature","properties":{"tipo":"lavapies","nombre":"LAVAPIES N\u00ba 58B ARENAS - MALVARROSA"},"geometry":{"type":"Point","coordinates":[-0.3233850007156893,39.47161483628506]}},{"type":"Feature","properties":{"tipo":"lavapies","nombre":"LAVAPIES N\u00ba 90 PINEDO"},"geometry":{"type":"Point","coordinates":[-0.33293798607094255,39.41033935433134]}}]}