{"type":"FeatureCollection","features":[{"type":"Feature","properties":{"nombre":"Paseo Maritimo","areaM2":54030},"geometry":{"type":"Point","coordinates":[-0.32379870067789696,39.468107348409625]}},{"type":"Feature","properties":{"nombre":"Jardin Del Turia (Tramo 4)","areaM2":104482},"geometry":{"type":"Point","coordinates":[-0.38769820422347534,39.47906720990726]}},{"type":"Feature","properties":{"nombre":"Jardin Del Turia (Tramo 6)","areaM2":79408},"geometry":{"type":"Point","coordinates":[-0.37797496620887067,39.481456421166946]}},{"type":"Feature","properties":{"nombre":"Parque De Orriols","areaM2":43462},"geometry":{"type":"Point","coordinates":[-0.36529248012626603,39.49292910447182]}},{"type":"Feature","properties":{"nombre":"Jardin Del Turia (Tramo 1)","areaM2":38413},"geometry":{"type":"Point","coordinates":[-0.404826678980516,39.474206391127304]}},{"type":"Feature","properties":{"nombre":"Palacio De Congresos","areaM2":25230},"geometry":{"type":"Point","coordinates":[-0.4016380822008202,39.4960514216202]}},{"type":"Feature","properties":{"nombre":"Parque De Marxalenes","areaM2":59834},"geometry":{"type":"Point","coordinates":[-0.38200522674179,39.487090851979005]}},{"type":"Feature","properties":{"nombre":"Jardin Del Turia (Tramo 10)","areaM2":42291},"geometry":{"type":"Point","coordinates":[-0.363859618584527,39.47044435074308]}},{"type":"Feature","properties":{"nombre":"Jardin Del Turia (Tramo 3)","areaM2":81265},"geometry":{"type":"Point","coordinates":[-0.3930428422325201,39.47733913734584]}},{"type":"Feature","properties":{"nombre":"Jardin Del Turia (Tramo 2)","areaM2":82364},"geometry":{"type":"Point","coordinates":[-0.3993999473066883,39.47508984926598]}},{"type":"Feature","properties":{"nombre":"Jardin Del Turia (Tramo 5)","areaM2":47007},"geometry":{"type":"Point","coordinates":[-0.38240957301797407,39.481328561355]}},{"type":"Feature","properties":{"nombre":"Parque Central","areaM2":74976},"geometry":{"type":"Point","coordinates":[-0.37884541294039953,39.457562506680624]}},{"type":"Feature","properties":{"nombre":"Parque De Natzaret","areaM2":64526},"geometry":{"type":"Point","coordinates":[-0.3300196496499477,39.447785677054284]}},{"type":"Feature","properties":{"nombre":"Parque De Benicalap","areaM2":79618},"geometry":{"type":"Point","coordinates":[-0.39670977013777203,39.49815660540852]}},{"type":"Feature","properties":{"nombre":"Pai Moreras (Ii)","areaM2":48483},"geometry":{"type":"Point","coordinates":[-0.33478801157539717,39.45401514915795]}},{"type":"Feature","properties":{"nombre":"Jardin Del Turia (Tramo 7)","areaM2":46051},"geometry":{"type":"Point","coordinates":[-0.3741979708894289,39.47998507193619]}},{"type":"Feature","properties":{"nombre":"Bulevar Sur (I) (Del Cid Av - Tres Forques C)","areaM2":24241},"geometry":{"type":"Point","coordinates":[-0.4056734425005662,39.4635669882996]}},{"type":"Feature","properties":{"nombre":"Jardin Del Turia (Tramo 11)","areaM2":89900},"geometry":{"type":"Point","coordinates":[-0.36140857254378705,39.466505116434085]}},{"type":"Feature","properties":{"nombre":"Jardin Del Turia (Tramo 8)","areaM2":63101},"geometry":{"type":"Point","coordinates":[-0.37108214664817757,39.47802632331119]}},{"type":"Feature","properties":{"nombre":"Autopista El Saler (V-15))","areaM2":29468},"geometry":{"type":"Point","coordinates":[-0.34514998994411883,39.44752694793445]}},{"type":"Feature","properties":{"nombre":"Bulevar Sur (Iii)(Campos Crespo C - San Vicente Martir)","areaM2":34751},"geometry":{"type":"Point","coordinates":[-0.3909575532369437,39.4478904257825]}},{"type":"Feature","properties":{"nombre":"Jardin Del Turia (Tramo 16)","areaM2":78939},"geometry":{"type":"Point","coordinates":[-0.34642227658399055,39.4544700679399]}},{"type":"Feature","properties":{"nombre":"Jardin De Wangari Maathai (De La Vida)","areaM2":26702},"geometry":{"type":"Point","coordinates":[-0.4022399963237178,39.450311833033226]}},{"type":"Feature","properties":{"nombre":"Jardin De Polifilo","areaM2":39569},"geometry":{"type":"Point","coordinates":[-0.4045262591846613,39.492442284487616]}},{"type":"Feature","properties":{"nombre":"Jardin De Aiora","areaM2":38546},"geometry":{"type":"Point","coordinates":[-0.343639485427721,39.46734233601239]}},{"type":"Feature","properties":{"nombre":"Parque De La Rambleta (Pio Ix C)","areaM2":51891},"geometry":{"type":"Point","coordinates":[-0.39422551711103365,39.445975915121565]}},{"type":"Feature","properties":{"nombre":"Jardin Del Turia (Tramo 14)","areaM2":191586},"geometry":{"type":"Point","coordinates":[-0.3522965644296563,39.45706183489026]}},{"type":"Feature","properties":{"nombre":"Cortes Valenciana","areaM2":24565},"geometry":{"type":"Point","coordinates":[-0.39928397957844,39.49026336473617]}},{"type":"Feature","properties":{"nombre":"Sociopolis","areaM2":89084},"geometry":{"type":"Point","coordinates":[-0.39500114202775743,39.43040915211538]}},{"type":"Feature","properties":{"nombre":"Profesor Lopez Pi\u00f1ero Av - Ciudad Ciencias","areaM2":20065},"geometry":{"type":"Point","coordinates":[-0.3542327091253906,39.45495441602375]}},{"type":"Feature","properties":{"nombre":"Jardin Del Turia (Tramo 12)","areaM2":160626},"geometry":{"type":"Point","coordinates":[-0.35734804460217817,39.46046147993858]}},{"type":"Feature","properties":{"nombre":"Bulevar Sur (Iv) (San Vicente - Carrera Fuentesanlu","areaM2":65119},"geometry":{"type":"Point","coordinates":[-0.36890630958658394,39.44613405921908]}},{"type":"Feature","properties":{"nombre":"Gv Fernando El Catolico","areaM2":20510},"geometry":{"type":"Point","coordinates":[-0.38754681387644246,39.473814787647356]}},{"type":"Feature","properties":{"nombre":"Jardin Del Turia (Tramo 9)","areaM2":112522},"geometry":{"type":"Point","coordinates":[-0.3675779077153752,39.47486594818379]}},{"type":"Feature","properties":{"nombre":"Torres De Monteolivete (Poeta Josep Cervera I Grif","areaM2":21984},"geometry":{"type":"Point","coordinates":[-0.3593438979833768,39.45675408388506]}},{"type":"Feature","properties":{"nombre":"Parque Urbano De Malilla","areaM2":70779},"geometry":{"type":"Point","coordinates":[-0.37518772824810087,39.44908919406635]}},{"type":"Feature","properties":{"nombre":"Hermanos Maristas Av","areaM2":36687},"geometry":{"type":"Point","coordinates":[-0.36340500687986393,39.45372549085905]}},{"type":"Feature","properties":{"nombre":"Parque Lineal","areaM2":36986},"geometry":{"type":"Point","coordinates":[-0.415528282459559,39.501829309015456]}},{"type":"Feature","properties":{"nombre":"Patraix P.A.I","areaM2":95123},"geometry":{"type":"Point","coordinates":[-0.3959206550373139,39.45653787130488]}},{"type":"Feature","properties":{"nombre":"Cid Av","areaM2":46640},"geometry":{"type":"Point","coordinates":[-0.395734333495069,39.4681609008916]}},{"type":"Feature","properties":{"nombre":"Parque De Cabecera","areaM2":161306},"geometry":{"type":"Point","coordinates":[-0.4086087595695939,39.47671560575215]}},{"type":"Feature","properties":{"nombre":"Parque Nazaret ( Manuel Carboneres C - Algemesi C.)","areaM2":35108},"geometry":{"type":"Point","coordinates":[-0.33206094824201265,39.44361330387894]}},{"type":"Feature","properties":{"nombre":"Parque Del Oeste","areaM2":39861},"geometry":{"type":"Point","coordinates":[-0.3959243475586634,39.46653510830368]}},{"type":"Feature","properties":{"nombre":"Jard\u00edn Central (Campus Tarongers)","areaM2":25922},"geometry":{"type":"Point","coordinates":[-0.34317187845482033,39.476407877751406]}},{"type":"Feature","properties":{"nombre":"Jard\u00edn Central (Campus Tarongers)","areaM2":25922},"geometry":{"type":"Point","coordinates":[-0.34317187845482033,39.476407877751406]}},{"type":"Feature","properties":{"nombre":"Aparcamiento Playa Pinedo","areaM2":24937},"geometry":{"type":"Point","coordinates":[-0.3342635367502482,39.416737634734815]}},{"type":"Feature","properties":{"nombre":"Zal","areaM2":34664},"geometry":{"type":"Point","coordinates":[-0.3398413569735205,39.4403440843224]}},{"type":"Feature","properties":{"nombre":"Ronda Norte (Iii) (Hermanos Machado Av)","areaM2":20006},"geometry":{"type":"Point","coordinates":[-0.3826902478588709,39.498320437634554]}},{"type":"Feature","properties":{"nombre":"Blasco Ib\u00e1\u00f1ez Av (Iv)","areaM2":21783},"geometry":{"type":"Point","coordinates":[-0.3421195566352992,39.472286825031226]}},{"type":"Feature","properties":{"nombre":"Alfahuir C","areaM2":26736},"geometry":{"type":"Point","coordinates":[-0.3646618878630388,39.48974233677082]}},{"type":"Feature","properties":{"nombre":"Blasco Ib\u00e1\u00f1ez Av (Iii)","areaM2":23876},"geometry":{"type":"Point","coordinates":[-0.3453456274789016,39.473241092342704]}},{"type":"Feature","properties":{"nombre":"Alameda Pso (Palau De La M\u00fasica)","areaM2":20148},"geometry":{"type":"Point","coordinates":[-0.3611168833554998,39.46812547827903]}},{"type":"Feature","properties":{"nombre":"Alameda Pso","areaM2":53010},"geometry":{"type":"Point","coordinates":[-0.36238243339416354,39.47010958708016]}},{"type":"Feature","properties":{"nombre":"Blasco Iba\u00f1ez Av (I)","areaM2":48558},"geometry":{"type":"Point","coordinates":[-0.3606118020990637,39.47766044294517]}},{"type":"Feature","properties":{"nombre":"Marina De Valencia","areaM2":40956},"geometry":{"type":"Point","coordinates":[-0.32293968041274584,39.46211231415695]}},{"type":"Feature","properties":{"nombre":"Ronda Norte (Ii) (Hermanos Machado Av)","areaM2":26871},"geometry":{"type":"Point","coordinates":[-0.3796506555253387,39.49899319783225]}},{"type":"Feature","properties":{"nombre":"Blasco Ib\u00e1\u00f1ez Av (Ii)","areaM2":22918},"geometry":{"type":"Point","coordinates":[-0.35091126211167234,39.474569690259]}},{"type":"Feature","properties":{"nombre":"Jardines Del Real","areaM2":172834},"geometry":{"type":"Point","coordinates":[-0.3683702437081561,39.479937851727534]}}]}